[{"OBJECT_NAME":"ONEWEB-0705","OBJECT_ID":"2024-188S","EPOCH":"2025-12-14T06:56:32.770752","MEAN_MOTION":13.10376101,"ECCENTRICITY":0.00010006,"INCLINATION":87.882,"RA_OF_ASC_NODE":73.1085,"ARG_OF_PERICENTER":147.0005,"MEAN_ANOMALY":213.1185,"EPHEMERIS_TYPE":0,"CLASSIFICATION_TYPE":"U","NORAD_CAT_ID":61610,"ELEMENT_SET_NO":999,"REV_AT_EPOCH":5124,"BSTAR":2.6416678e-5,"MEAN_MOTION_DOT":2.2e-7,"MEAN_MOTION_DDOT":0},{"OBJECT_NAME":"ONEWEB-0706","OBJECT_ID":"2024-188T","EPOCH":"2025-12-14T06:35:01.129632","MEAN_MOTION":13.10373891,"ECCENTRICITY":0.00010088,"INCLINATION":87.8809,"RA_OF_ASC_NODE":73.1326,"ARG_OF_PERICENTER":103.2366,"MEAN_ANOMALY":256.8874,"EPHEMERIS_TYPE":0,"CLASSIFICATION_TYPE":"U","NORAD_CAT_ID":61611,"ELEMENT_SET_NO":999,"REV_AT_EPOCH":5916,"BSTAR":-0.0016792705,"MEAN_MOTION_DOT":-5.74e-6,"MEAN_MOTION_DDOT":0},{"OBJECT_NAME":"ONEWEB-0707","OBJECT_ID":"2024-188U","EPOCH":"2025-12-14T06:44:35.463264","MEAN_MOTION":13.10375282,"ECCENTRICITY":0.00010408,"INCLINATION":87.8823,"RA_OF_ASC_NODE":73.109,"ARG_OF_PERICENTER":99.0527,"MEAN_ANOMALY":261.0718,"EPHEMERIS_TYPE":0,"CLASSIFICATION_TYPE":"U","NORAD_CAT_ID":61612,"ELEMENT_SET_NO":999,"REV_AT_EPOCH":5910,"BSTAR":-0.0011073238,"MEAN_MOTION_DOT":-3.74e-6,"MEAN_MOTION_DDOT":0},{"OBJECT_NAME":"ONEWEB-0708","OBJECT_ID":"2024-188V","EPOCH":"2025-12-14T05:20:57.068736","MEAN_MOTION":13.10374005,"ECCENTRICITY":0.00015321,"INCLINATION":87.8811,"RA_OF_ASC_NODE":73.1552,"ARG_OF_PERICENTER":125.6188,"MEAN_ANOMALY":234.5082,"EPHEMERIS_TYPE":0,"CLASSIFICATION_TYPE":"U","NORAD_CAT_ID":61613,"ELEMENT_SET_NO":999,"REV_AT_EPOCH":5907,"BSTAR":0.0014467895,"MEAN_MOTION_DOT":5.18e-6,"MEAN_MOTION_DDOT":0}]
