ONEWEB-0705             
1 61610U 24188S   25348.28926818  .00000022  00000+0  26417-4 0  9990
2 61610  87.8820  73.1085 0001000 147.0005 213.1185 13.10376101 51247
ONEWEB-0706             
1 61611U 24188T   25348.27431863 -.00000574  00000+0 -16793-2 0  9999
2 61611  87.8809  73.1326 0001008 103.2366 256.8874 13.10373891 59166
ONEWEB-0707             
1 61612U 24188U   25348.28096601 -.00000374  00000+0 -11073-2 0  9992
2 61612  87.8823  73.1090 0001040  99.0527 261.0718 13.10375282 59103
ONEWEB-0708             
1 61613U 24188V   25348.22288274  .00000518  00000+0  14468-2 0  9995
2 61613  87.8811  73.1552 0001532 125.6188 234.5082 13.10374005 59076
